{"type":"Topology","transform":{"scale":[0.0012920655423273423,0.0009813422858190543],"translate":[-87.94163126145297,41.63105961741635]},"arcs":[[[250,255],[-13,3]],[[237,258],[0,2]],[[237,260],[5,0]],[[242,260],[13,3]],[[255,263],[-5,-8]],[[250,255],[-13,0]],[[237,255],[0,3]],[[250,255],[-13,-2]],[[237,253],[0,2]],[[250,247],[-13,3]],[[237,250],[0,3]],[[250,255],[0,-8]],[[255,225],[-18,10]],[[237,235],[0,15]],[[250,247],[5,-22]],[[237,250],[-4,0]],[[233,250],[0,13]],[[233,263],[4,0],[0,-3]],[[237,235],[-9,-3]],[[228,232],[-13,8]],[[215,240],[0,23]],[[215,263],[13,0]],[[228,263],[5,-13]],[[228,232],[0,-27]],[[228,205],[-31,-3]],[[197,202],[-5,3]],[[192,205],[0,35]],[[192,240],[23,0]],[[246,167],[-22,0]],[[224,167],[-23,0]],[[201,167],[-4,35]],[[228,205],[18,0]],[[246,205],[0,-23]],[[246,182],[0,-15]],[[246,278],[-4,-18]],[[233,263],[-5,0]],[[228,263],[0,22]],[[228,285],[18,0]],[[246,285],[0,-7]],[[246,278],[9,-15]],[[192,240],[-9,0]],[[183,240],[0,30]],[[183,270],[32,-7]],[[233,321],[-27,0]],[[206,321],[-5,15]],[[201,336],[32,-5]],[[233,331],[0,-10]],[[228,285],[-22,8]],[[206,293],[0,15]],[[206,308],[36,0]],[[242,308],[4,-23]],[[246,182],[27,2]],[[273,184],[9,-17]],[[282,167],[-36,0]],[[264,205],[-18,0]],[[255,225],[9,-20]],[[322,78],[0,-33]],[[322,45],[-58,11]],[[264,56],[9,37]],[[273,93],[4,31]],[[277,124],[32,2]],[[309,126],[13,-48]],[[206,308],[-41,-2]],[[165,306],[0,30]],[[165,336],[36,0]],[[206,321],[0,-13]],[[273,93],[-27,0]],[[246,93],[0,36]],[[246,129],[0,7]],[[246,136],[27,3]],[[273,139],[4,-15]],[[246,93],[-13,-2]],[[233,91],[-32,0]],[[201,91],[0,15]],[[201,106],[0,23]],[[201,129],[23,0]],[[224,129],[22,0]],[[224,129],[0,38]],[[246,167],[0,-31]],[[183,270],[0,15]],[[183,285],[23,8]],[[192,205],[-35,0]],[[157,205],[0,35]],[[157,240],[26,0]],[[157,240],[0,30]],[[157,270],[26,0]],[[165,336],[0,23]],[[165,359],[36,0]],[[201,359],[0,-23]],[[224,374],[-23,0]],[[201,374],[0,22]],[[201,396],[14,3],[9,-25]],[[264,56],[9,-26]],[[273,30],[-40,-2],[0,5],[0,7]],[[233,40],[0,51]],[[157,131],[0,33]],[[157,164],[44,3]],[[201,167],[0,-38]],[[201,129],[-44,0]],[[157,129],[0,2]],[[165,336],[-31,0]],[[134,336],[-13,0]],[[121,336],[0,7]],[[121,343],[0,16]],[[121,359],[44,0]],[[67,364],[31,30],[18,-18]],[[116,376],[5,-17]],[[121,359],[-54,-3]],[[67,356],[0,8]],[[157,164],[0,30]],[[157,194],[0,11]],[[322,45],[0,-15],[0,-30],[-40,13],[-9,17]],[[134,336],[0,-30]],[[134,306],[-13,0]],[[121,306],[-32,7],[-17,-2],[-5,10],[5,7]],[[72,328],[9,5]],[[81,333],[40,3]],[[282,167],[4,-15]],[[286,152],[-13,-13]],[[157,131],[-45,-5],[-5,8],[0,35],[32,18],[18,7]],[[165,283],[-35,0]],[[130,283],[-9,0],[0,23]],[[134,306],[31,0]],[[165,306],[0,-23]],[[201,359],[5,0]],[[206,359],[18,0]],[[224,359],[9,-28]],[[201,48],[0,35]],[[201,83],[0,8]],[[233,40],[-18,8],[-14,0]],[[157,240],[-27,0],[0,13],[0,15]],[[130,268],[27,2]],[[201,374],[-22,0]],[[179,374],[0,15],[0,7],[22,0]],[[116,376],[23,8],[0,-3],[26,-7]],[[165,374],[0,-15]],[[183,285],[-18,-2]],[[286,152],[23,-26]],[[130,268],[0,15]],[[157,106],[0,23]],[[201,106],[-31,0],[-13,0]],[[264,205],[9,-21]],[[192,48],[-35,13],[13,22],[31,0]],[[201,48],[-9,0]],[[121,343],[-40,-10]],[[72,328],[-9,20],[4,8]],[[233,321],[9,-13]],[[165,374],[14,0]],[[201,374],[5,-15]],[[224,374],[0,-15]],[[40,333],[-22,0],[-18,36],[4,7],[45,-28],[-9,-15]]],"objects":{"zip_codes_for_the_usa":{"type":"GeometryCollection","geometries":[{"arcs":[[0,1,2,3,4]],"type":"Polygon","properties":{"name":"CHICAGO","zip":"60601","state":"IL"}},{"arcs":[[5,6,-1]],"type":"Polygon","properties":{"name":"CHICAGO","zip":"60602","state":"IL"}},{"arcs":[[7,8,-6]],"type":"Polygon","properties":{"name":"CHICAGO","zip":"60603","state":"IL"}},{"arcs":[[9,10,-8,11]],"type":"Polygon","properties":{"name":"CHICAGO","zip":"60604","state":"IL"}},{"arcs":[[12,13,-10,14]],"type":"Polygon","properties":{"name":"CHICAGO","zip":"60605","state":"IL"}},{"arcs":[[15,16,17,-2,-7,-9,-11]],"type":"Polygon","properties":{"name":"CHICAGO","zip":"60606","state":"IL"}},{"arcs":[[18,19,20,21,22,-16,-14]],"type":"Polygon","properties":{"name":"CHICAGO","zip":"60607","state":"IL"}},{"arcs":[[23,24,25,26,27,-20]],"type":"Polygon","properties":{"name":"CHICAGO","zip":"60608","state":"IL"}},{"arcs":[[28,29,30,-25,31,32,33]],"type":"Polygon","properties":{"name":"CHICAGO","zip":"60609","state":"IL"}},{"arcs":[[34,-3,-18,35,36,37,38]],"type":"Polygon","properties":{"name":"CHICAGO","zip":"60610","state":"IL"}},{"arcs":[[-4,-35,39]],"type":"Polygon","properties":{"name":"CHICAGO","zip":"60611","state":"IL"}},{"arcs":[[40,41,42,-21,-28]],"type":"Polygon","properties":{"name":"CHICAGO","zip":"60612","state":"IL"}},{"arcs":[[43,44,45,46]],"type":"Polygon","properties":{"name":"CHICAGO","zip":"60613","state":"IL"}},{"arcs":[[47,48,49,50,-38]],"type":"Polygon","properties":{"name":"CHICAGO","zip":"60614","state":"IL"}},{"arcs":[[51,52,53,-34]],"type":"Polygon","properties":{"name":"CHICAGO","zip":"60615","state":"IL"}},{"arcs":[[54,-32,-24,-19,-13,55]],"type":"Polygon","properties":{"name":"CHICAGO","zip":"60616","state":"IL"}},{"arcs":[[56,57,58,59,60,61]],"type":"Polygon","properties":{"name":"CHICAGO","zip":"60617","state":"IL"}},{"arcs":[[62,63,64,-45,65]],"type":"Polygon","properties":{"name":"CHICAGO","zip":"60618","state":"IL"}},{"arcs":[[66,67,68,69,70,-60]],"type":"Polygon","properties":{"name":"CHICAGO","zip":"60619","state":"IL"}},{"arcs":[[71,72,73,74,75,76,-68]],"type":"Polygon","properties":{"name":"CHICAGO","zip":"60620","state":"IL"}},{"arcs":[[77,-29,78,-69,-77]],"type":"Polygon","properties":{"name":"CHICAGO","zip":"60621","state":"IL"}},{"arcs":[[-22,-43,79,80,-48,-37]],"type":"Polygon","properties":{"name":"CHICAGO","zip":"60622","state":"IL"}},{"arcs":[[81,82,83,-41,-27]],"type":"Polygon","properties":{"name":"CHICAGO","zip":"60623","state":"IL"}},{"arcs":[[84,85,-42,-84]],"type":"Polygon","properties":{"name":"CHICAGO","zip":"60624","state":"IL"}},{"arcs":[[86,87,88,-65]],"type":"Polygon","properties":{"name":"CHICAGO","zip":"60625","state":"IL"}},{"arcs":[[89,90,91]],"type":"Polygon","properties":{"name":"CHICAGO","zip":"60626","state":"IL"}},{"arcs":[[92,93,94,-72,-67,-59]],"type":"Polygon","properties":{"name":"CHICAGO","zip":"60628","state":"IL"}},{"arcs":[[95,96,97,98,99]],"type":"Polygon","properties":{"name":"CHICAGO","zip":"60629","state":"IL"}},{"arcs":[[100,101,102,103,104,-87]],"type":"Polygon","properties":{"name":"CHICAGO","zip":"60630","state":"IL"}},{"arcs":[[105,106,107,108]],"type":"Polygon","properties":{"name":"CHICAGO","zip":"60631","state":"IL"}},{"arcs":[[-97,109,110,-82,-26,-31]],"type":"Polygon","properties":{"name":"CHICAGO","zip":"60632","state":"IL"}},{"arcs":[[111,-93,-58]],"type":"Polygon","properties":{"name":"CHICAGO","zip":"60633","state":"IL"}},{"arcs":[[112,113,114,115,116,-102]],"type":"Polygon","properties":{"name":"CHICAGO","zip":"60634","state":"IL"}},{"arcs":[[-98,-30,-78,-76]],"type":"Polygon","properties":{"name":"CHICAGO","zip":"60636","state":"IL"}},{"arcs":[[-79,-54,117,118,-70]],"type":"Polygon","properties":{"name":"CHICAGO","zip":"60637","state":"IL"}},{"arcs":[[119,-110,-96]],"type":"Polygon","properties":{"name":"CHICAGO","zip":"60638","state":"IL"}},{"arcs":[[120,121,-114,122,123]],"type":"Polygon","properties":{"name":"CHICAGO","zip":"60639","state":"IL"}},{"arcs":[[-46,-89,124,125,126]],"type":"Polygon","properties":{"name":"CHICAGO","zip":"60640","state":"IL"}},{"arcs":[[-113,-101,-64,-123]],"type":"Polygon","properties":{"name":"CHICAGO","zip":"60641","state":"IL"}},{"arcs":[[127,128,-73,-95,129]],"type":"Polygon","properties":{"name":"CHICAGO","zip":"60643","state":"IL"}},{"arcs":[[130,131,-85]],"type":"Polygon","properties":{"name":"CHICAGO","zip":"60644","state":"IL"}},{"arcs":[[132,133,-91]],"type":"Polygon","properties":{"name":"CHICAGO","zip":"60645","state":"IL"}},{"arcs":[[134,135,-105,-107]],"type":"Polygon","properties":{"name":"CHICAGO","zip":"60646","state":"IL"}},{"arcs":[[136,-124,-63,-49,-81]],"type":"Polygon","properties":{"name":"CHICAGO","zip":"60647","state":"IL"}},{"arcs":[[-71,-119,137,-61]],"type":"Polygon","properties":{"name":"CHICAGO","zip":"60649","state":"IL"}},{"arcs":[[-132,138,-121,-137,-80,-86]],"type":"Polygon","properties":{"name":"CHICAGO","zip":"60651","state":"IL"}},{"arcs":[[139,-99,-75,140]],"type":"Polygon","properties":{"name":"CHICAGO","zip":"60652","state":"IL"}},{"arcs":[[-33,-55,141,-52]],"type":"Polygon","properties":{"name":"CHICAGO","zip":"60653","state":"IL"}},{"arcs":[[142,-128,143]],"type":"Polygon","properties":{"name":"CHICAGO","zip":"60655","state":"IL"}},{"arcs":[[144,-116,145,-108,-104]],"type":"Polygon","properties":{"name":"CHICAGO","zip":"60656","state":"IL"}},{"arcs":[[-66,-44,146,-50]],"type":"Polygon","properties":{"name":"CHICAGO","zip":"60657","state":"IL"}},{"arcs":[[147,-133,148,-125,-88,-136]],"type":"Polygon","properties":{"name":"CHICAGO","zip":"60659","state":"IL"}},{"arcs":[[-90,149,-126,-149]],"type":"Polygon","properties":{"name":"CHICAGO","zip":"60660","state":"IL"}},{"arcs":[[-36,-17,-23]],"type":"Polygon","properties":{"name":"CHICAGO","zip":"60661","state":"IL"}},{"arcs":[[150]],"type":"Polygon","properties":{"name":"AMF OHARE","zip":"60666","state":"IL"}}]}}}